SAUDISAT 1C (SO-50)     
1 27607U 02058C   26068.61742404  .00002222  00000+0  27919-3 0  9995
2 27607  64.5524  76.9957 0075248 280.7497  78.5144 14.82783142249695
STARLINK-5923           
1 56489U 23064AT  26068.50105688  .00001029  00000+0  94045-4 0  9999
2 56489  69.9991 104.9595 0002996 276.4731  83.6087 14.98334951156209
