[{"OBJECT_NAME":"SAUDISAT 1C (SO-50)","OBJECT_ID":"2002-058C","EPOCH":"2026-03-09T14:49:05.437056","MEAN_MOTION":14.82783142,"ECCENTRICITY":0.0075248,"INCLINATION":64.5524,"RA_OF_ASC_NODE":76.9957,"ARG_OF_PERICENTER":280.7497,"MEAN_ANOMALY":78.5144,"EPHEMERIS_TYPE":0,"CLASSIFICATION_TYPE":"U","NORAD_CAT_ID":27607,"ELEMENT_SET_NO":999,"REV_AT_EPOCH":24969,"BSTAR":0.00027919,"MEAN_MOTION_DOT":2.222e-5,"MEAN_MOTION_DDOT":0},{"OBJECT_NAME":"STARLINK-5923","OBJECT_ID":"2023-064AT","EPOCH":"2026-03-09T12:01:31.314432","MEAN_MOTION":14.98334951,"ECCENTRICITY":0.0002996,"INCLINATION":69.9991,"RA_OF_ASC_NODE":104.9595,"ARG_OF_PERICENTER":276.4731,"MEAN_ANOMALY":83.6087,"EPHEMERIS_TYPE":0,"CLASSIFICATION_TYPE":"U","NORAD_CAT_ID":56489,"ELEMENT_SET_NO":999,"REV_AT_EPOCH":15620,"BSTAR":9.4045218e-5,"MEAN_MOTION_DOT":1.029e-5,"MEAN_MOTION_DDOT":0}]
